NORAD_CAT_ID,OBJECT_NAME,OBJECT_TYPE,EPOCH,MEAN_MOTION,ECCENTRICITY,INCLINATION,RA_OF_ASC_NODE,ARG_OF_PERICENTER,MEAN_ANOMALY,BSTAR,MEAN_MOTION_DOT,MEAN_MOTION_DDOT,TLE_LINE0,TLE_LINE1,TLE_LINE2,SEMIMAJOR_AXIS,PERIOD,APOGEE,PERIGEE,DECAYED
54203.0,STARLINK-5247,PAYLOAD,2024-01-05 21:19:33,15.08836072,0.0001373,53.2185,317.4369,102.4587,257.6559,2.7036e-05,1.42e-06,0.0,0 STARLINK-5247,1 54203U 22141AY  24005.88858644  .00000142  00000-0  27036-4 0  9995,2 54203  53.2185 317.4369 0001373 102.4587 257.6559 15.08836072 66162,6917.892,95.438,540.707,538.808,0.0
54203.0,STARLINK-5247,PAYLOAD,2024-01-06 02:05:43,15.08838895,0.0001305,53.2189,316.547,93.8687,266.2454,3.9098e-05,3.34e-06,0.0,0 STARLINK-5247,1 54203U 22141AY  24006.08730551  .00000334  00000-0  39098-4 0  9998,2 54203  53.2189 316.5470 0001305  93.8687 266.2454 15.08838895 66422,6917.884,95.438,540.652,538.846,0.0
54203.0,STARLINK-5247,PAYLOAD,2024-01-06 06:51:52,15.08840668,0.0001307,53.2185,315.6548,92.2066,267.9076,4.8797e-05,4.89e-06,0.0,0 STARLINK-5247,1 54203U 22141AY  24006.28602420  .00000489  00000-0  48797-4 0  9990,2 54203  53.2185 315.6548 0001307  92.2066 267.9076 15.08840668 66227,6917.878,95.438,540.648,538.839,0.0
54203.0,STARLINK-5247,PAYLOAD,2024-01-06 19:34:58,15.08832955,0.0001384,53.218,313.2747,102.2118,257.9029,-9.3149e-06,-4.36e-06,0.0,0 STARLINK-5247,1 54203U 22141AY  24006.81595199 -.00000436  00000-0 -93149-5 0  9999,2 54203  53.2180 313.2747 0001384 102.2118 257.9029 15.08832955 66533,6917.902,95.438,540.724,538.809,0.0
54203.0,STARLINK-5247,PAYLOAD,2024-01-07 03:31:53,15.08840818,0.000128,53.2183,311.791,86.1766,273.9372,5.3399e-05,5.62e-06,0.0,0 STARLINK-5247,1 54203U 22141AY  24007.14714608  .00000562  00000-0  53399-4 0  9994,2 54203  53.2183 311.7910 0001280  86.1766 273.9372 15.08840818 66586,6917.878,95.438,540.628,538.857,0.0
54203.0,STARLINK-5247,PAYLOAD,2024-01-07 19:25:45,15.08832996,0.000137,53.2181,308.8183,87.025,273.0899,0.0001076,1.425e-05,0.0,0 STARLINK-5247,1 54203U 22141AY  24007.80955137  .00001425  00000-0  10760-3 0  9994,2 54203  53.2181 308.8183 0001370  87.0250 273.0899 15.08832996 66685,6917.902,95.438,540.715,538.819,0.0
54203.0,STARLINK-5247,PAYLOAD,2024-01-08 04:58:03,15.08842465,0.0001386,53.218,307.0318,92.6684,267.4467,5.768e-05,6.3e-06,0.0,0 STARLINK-5247,1 54203U 22141AY  24008.20698666  .00000630  00000-0  57680-4 0  9990,2 54203  53.2180 307.0318 0001386  92.6684 267.4467 15.08842465 66742,6917.873,95.437,540.697,538.779,0.0
54203.0,STARLINK-5247,PAYLOAD,2024-01-09 03:13:27,15.08844114,0.0001401,53.2181,302.8675,102.1349,257.98,4.1733e-05,3.76e-06,0.0,0 STARLINK-5247,1 54203U 22141AY  24009.13434866  .00000376  00000-0  41733-4 0  9992,2 54203  53.2181 302.8675 0001401 102.1349 257.9800 15.08844114 66653,6917.868,95.437,540.702,538.764,0.0
54203.0,STARLINK-5247,PAYLOAD,2024-01-09 19:07:19,15.08843679,0.0001397,53.218,299.8945,93.1808,266.9344,6.2152e-05,7.01e-06,0.0,0 STARLINK-5247,1 54203U 22141AY  24009.79674876  .00000701  00000-0  62152-4 0  9991,2 54203  53.2180 299.8945 0001397  93.1808 266.9344 15.08843679 66984,6917.869,95.437,540.701,538.768,0.0
54203.0,STARLINK-5247,PAYLOAD,2024-01-10 01:28:51,15.08845881,0.0001433,53.2171,298.7078,86.2375,273.8781,0.00018744,2.697e-05,0.0,0 STARLINK-5247,1 54203U 22141AY  24010.06170327  .00002697  00000-0  18744-3 0  9998,2 54203  53.2171 298.7078 0001433  86.2375 273.8781 15.08845881 66790,6917.862,95.437,540.719,538.736,0.0
54203.0,STARLINK-5247,PAYLOAD,2024-01-10 18:58:06,15.08842721,0.000164,53.2172,295.4376,70.7951,289.3219,1.7754e-05,-5e-08,0.0,0 STARLINK-5247,1 54203U 22141AY  24010.79035223 -.00000005  00000-0  17754-4 0  9996,2 54203  53.2172 295.4376 0001640  70.7951 289.3219 15.08842721 67131,6917.872,95.437,540.872,538.603,0.0
54203.0,STARLINK-5247,PAYLOAD,2024-01-11 04:30:24,15.08846916,0.0001506,53.2175,293.6509,85.3804,274.736,5.2572e-05,5.49e-06,0.0,0 STARLINK-5247,1 54203U 22141AY  24011.18778669  .00000549  00000-0  52572-4 0  9997,2 54203  53.2175 293.6509 0001506  85.3804 274.7360 15.08846916 66967,6917.859,95.437,540.766,538.682,0.0
54203.0,STARLINK-5247,PAYLOAD,2024-01-11 21:59:39,15.08844101,0.0001595,53.218,290.3768,110.1788,249.9376,-7.6619e-05,-1.507e-05,0.0,0 STARLINK-5247,1 54203U 22141AY  24011.91643098 -.00001507  00000-0 -76619-4 0  9990,2 54203  53.2180 290.3768 0001595 110.1788 249.9376 15.08844101 67078,6917.868,95.437,540.836,538.629,0.0
54203.0,STARLINK-5247,PAYLOAD,2024-01-12 01:10:25,15.08846829,0.0001598,53.2179,289.7816,108.9404,251.1761,-5.7542e-05,-1.204e-05,0.0,0 STARLINK-5247,1 54203U 22141AY  24012.04890850 -.00001204  00000-0 -57542-4 0  9993,2 54203  53.2179 289.7816 0001598 108.9404 251.1761 15.08846829 67325,6917.86,95.437,540.83,538.619,0.0
54203.0,STARLINK-5247,PAYLOAD,2024-01-12 04:21:11,15.08848167,0.0001623,53.2178,289.1867,110.5826,249.5341,-4.1524e-05,-9.49e-06,0.0,0 STARLINK-5247,1 54203U 22141AY  24012.18138676 -.00000949  00000-0 -41524-4 0  9997,2 54203  53.2178 289.1867 0001623 110.5826 249.5341 15.08848167 67119,6917.855,95.437,540.843,538.598,0.0
54203.0,STARLINK-5247,PAYLOAD,2024-01-12 21:50:27,15.08835782,0.000163,53.2179,285.9135,110.7388,249.3779,-3.5072e-05,-8.46e-06,0.0,0 STARLINK-5247,1 54203U 22141AY  24012.91003688 -.00000846  00000-0 -35072-4 0  9999,2 54203  53.2179 285.9135 0001630 110.7388 249.3779 15.08835782 67229,6917.893,95.438,540.886,538.631,0.0
54203.0,STARLINK-5247,PAYLOAD,2024-01-13 01:01:13,15.08835723,0.0001423,53.2189,285.3193,101.2171,258.8981,1.1202e-05,-1.1e-06,0.0,0 STARLINK-5247,1 54203U 22141AY  24013.04251688 -.00000110  00000-0  11202-4 0  9991,2 54203  53.2189 285.3193 0001423 101.2171 258.8981 15.08835723 67475,6917.893,95.438,540.743,538.774,0.0
54203.0,STARLINK-5247,PAYLOAD,2024-01-14 02:27:23,15.08847617,0.0001443,53.2178,280.5648,97.6297,262.4859,7.2512e-05,8.66e-06,0.0,0 STARLINK-5247,1 54203U 22141AY  24014.10235064  .00000866  00000-0  72512-4 0  9997,2 54203  53.2178 280.5648 0001443  97.6297 262.4859 15.08847617 67632,6917.857,95.437,540.72,538.724,0.0
54203.0,STARLINK-5247,PAYLOAD,2024-01-14 21:32:01,15.08842492,0.0001491,53.2176,276.9978,98.3964,261.7198,5.7021e-05,6.2e-06,0.0,0 STARLINK-5247,1 54203U 22141AY  24014.89723667  .00000620  00000-0  57021-4 0  9990,2 54203  53.2176 276.9978 0001491  98.3964 261.7198 15.08842492 67529,6917.873,95.437,540.769,538.706,0.0
54203.0,STARLINK-5247,PAYLOAD,2024-01-15 02:18:09,15.08850688,0.0001474,53.2176,276.1055,92.7963,267.3198,0.00015912,2.246e-05,0.0,0 STARLINK-5247,1 54203U 22141AY  24015.09594811  .00002246  00000-0  15912-3 0  9998,2 54203  53.2176 276.1055 0001474  92.7963 267.3198 15.08850688 67556,6917.848,95.437,540.732,538.693,0.0
54203.0,STARLINK-5247,PAYLOAD,2024-01-16 03:44:20,15.08845016,0.0001666,53.2182,271.3471,106.0281,254.0894,3.4935e-05,2.68e-06,0.0,0 STARLINK-5247,1 54203U 22141AY  24016.15579524  .00000268  00000-0  34935-4 0  9999,2 54203  53.2182 271.3471 0001666 106.0281 254.0894 15.08845016 67945,6917.865,95.437,540.883,538.578,0.0
54203.0,STARLINK-5247,PAYLOAD,2024-01-16 21:13:35,15.08842717,0.0001481,53.2173,268.0759,106.9924,253.1231,-5.7641e-05,-1.205e-05,0.0,0 STARLINK-5247,1 54203U 22141AY  24016.88443908 -.00001205  00000-0 -57641-4 0  9998,2 54203  53.2173 268.0759 0001481 106.9924 253.1231 15.08842717 67822,6917.872,95.437,540.762,538.713,0.0
54203.0,STARLINK-5247,PAYLOAD,2024-01-17 01:59:44,15.08847442,0.0001611,53.2184,267.1833,100.3595,259.7578,-1.7934e-06,-3.17e-06,0.0,0 STARLINK-5247,1 54203U 22141AY  24017.08315485 -.00000317  00000-0 -17934-5 0  9994,2 54203  53.2184 267.1833 0001611 100.3595 259.7578 15.08847442 67853,6917.858,95.437,540.837,538.608,0.0
54203.0,STARLINK-5247,PAYLOAD,2024-01-17 22:39:45,15.08844717,0.0001649,53.2165,263.3152,135.7777,224.3347,4.6989e-05,4.6e-06,0.0,0 STARLINK-5247,1 54203U 22141AY  24017.94427443  .00000460  00000-0  46989-4 0  9995,2 54203  53.2165 263.3152 0001649 135.7777 224.3347 15.08844717 67987,6917.866,95.437,540.872,538.59,0.0
54203.0,STARLINK-5247,PAYLOAD,2024-01-18 01:50:31,15.08845659,0.0001521,53.2169,262.7204,129.0072,231.1056,4.6871e-05,4.58e-06,0.0,0 STARLINK-5247,1 54203U 22141AY  24018.07675396  .00000458  00000-0  46871-4 0  9999,2 54203  53.2169 262.7204 0001521 129.0072 231.1056 15.08845659 68233,6917.863,95.437,540.78,538.676,0.0
54203.0,STARLINK-5247,PAYLOAD,2024-01-18 22:30:32,15.0884502,0.000139,53.2164,258.8565,115.0934,245.0203,4.6643e-05,4.55e-06,0.0,0 STARLINK-5247,1 54203U 22141AY  24018.93787767  .00000455  00000-0  46643-4 0  9994,2 54203  53.2164 258.8565 0001390 115.0934 245.0203 15.08845020 68139,6917.865,95.437,540.692,538.768,0.0
54203.0,STARLINK-5247,PAYLOAD,2024-01-19 01:41:18,15.08846623,0.0001435,53.2166,258.2608,117.7137,242.4001,6.5156e-05,7.49e-06,0.0,0 STARLINK-5247,1 54203U 22141AY  24019.07035544  .00000749  00000-0  65156-4 0  9995,2 54203  53.2166 258.2608 0001435 117.7137 242.4001 15.08846623 68156,6917.86,95.437,540.718,538.732,0.0
54203.0,STARLINK-5247,PAYLOAD,2024-01-19 19:10:32,15.08853657,0.0001663,53.2162,254.9909,121.0003,239.1152,0.00012593,1.717e-05,0.0,0 STARLINK-5247,1 54203U 22141AY  24019.79898992  .00001717  00000-0  12593-3 0  9990,2 54203  53.2162 254.9909 0001663 121.0003 239.1152 15.08853657 68494,6917.839,95.437,540.854,538.553,0.0
54203.0,STARLINK-5247,PAYLOAD,2024-01-19 22:21:18,15.08859079,0.0001483,53.217,254.3954,108.8927,251.2226,0.00016035,2.266e-05,0.0,0 STARLINK-5247,1 54203U 22141AY  24019.93146452  .00002266  00000-0  16035-3 0  9998,2 54203  53.2170 254.3954 0001483 108.8927 251.2226 15.08859079 68283,6917.822,95.436,540.713,538.661,0.0
54203.0,STARLINK-5247,PAYLOAD,2024-01-20 01:32:04,15.08860875,0.0001485,53.217,253.7997,111.8258,248.2892,0.00017556,2.509e-05,0.0,0 STARLINK-5247,1 54203U 22141AY  24020.06394136  .00002509  00000-0  17556-3 0  9997,2 54203  53.2170 253.7997 0001485 111.8258 248.2892 15.08860875 68535,6917.817,95.436,540.709,538.654,0.0
